KAITUO 1B               
1 40912U 15049P   17323.72774128  .00002186  00000-0  10991-3 0  9999
2 40912  97.4512 329.1091 0016529  26.7610  30.8667 15.18194157119885
TIANWANG 1C (TW-1C)     
1 40926U 15051B   17323.80190894  .00011646  00000-0  24277-3 0  9991
2 40926  97.2124   2.2764 0009992 333.1849  81.1375 15.45670969120931
TIANWANG 1B (TW-1B)     
1 40927U 15051C   17323.79123108  .00011453  00000-0  24831-3 0  9996
2 40927  97.2210   2.2104 0010340 345.7811  69.2093 15.44515911120863
TIANWANG 1A (TW-1A)     
1 40928U 15051D   17323.84170140  .00004033  00000-0  11188-3 0  9998
2 40928  97.2107 356.8383 0012347   6.8754  47.8773 15.37425187120602
LAPAN-A2 (IO-86)        
1 40931U 15052B   17322.18252131  .00000699  00000-0  82714-5 0  9999
2 40931   5.9958 214.6961 0013071 264.4276  95.4527 14.76554413115769
LQSAT                   
1 40958U 15057A   17323.80874934  .00000043  00000-0  14455-4 0  9993
2 40958  97.9647  36.2953 0016846 290.0520  69.8873 14.73000901114025
CHUBUSAT-2              
1 41338U 16012B   17323.08956574  .00000485  00000-0  31359-4 0  9991
2 41338  31.0025 208.3834 0013880 153.6113 206.5231 14.99869638 96265
CHUBUSAT-3              
1 41339U 16012C   17323.86203670  .00000436  00000-0  27354-4 0  9996
2 41339  31.0088 202.3771 0013753 168.6353 191.4601 15.00065557 96365
OUFTI-1                 
1 41458U 16025C   17323.77792672  .00002178  00000-0  11754-3 0  9998
2 41458  98.1672  10.2002 0173500 128.9753 232.7059 15.03938551 85958
E-ST@R-II               
1 41459U 16025D   17323.81773778  .00003490  00000-0  18654-3 0  9994
2 41459  98.1666  10.1510 0173758 129.5671 232.1037 15.03725654 85954
AAUSAT 4                
1 41460U 16025E   17323.77775991  .00003094  00000-0  16469-3 0  9992
2 41460  98.1610  10.3340 0166427 126.9505 234.7071 15.04887584 85981
NUSAT 1 (LO-87)         
1 41557U 16033B   17323.81032820  .00002688  00000-0  10181-3 0  9993
2 41557  97.4537  43.2954 0014290 171.4825 188.6659 15.27716419 82185
BEESAT-4                
1 41619U 16040W   17323.11749391  .00002253  00000-0  10328-3 0  9992
2 41619  97.4447  23.9115 0010414 242.5139 117.5039 15.21448700 66140
PRATHAM                 
1 41783U 16059A   17323.15563021  .00000122  00000-0  33150-4 0  9994
2 41783  98.1486  22.7711 0034321  36.8104 323.5445 14.62879875 61253
ALSAT 1N                
1 41789U 16059G   17323.69896656  .00000157  00000-0  39008-4 0  9998
2 41789  98.1491  24.1121 0029181  28.9708 331.3106 14.64101568 61368
NAYIF-1 (EO-88)         
1 42017U 17008BX  17323.46083679  .00002710  00000-0  11578-3 0  9994
2 42017  97.4774  24.5216 0007599  47.7478 312.4403 15.23723056 42121
LILACSAT-1              
1 42725U 98067ME  17323.63793089  .00022778  00000-0  27488-3 0  9999
2 42725  51.6387 339.5613 0004654 152.8632 207.2605 15.60646800 27713
MAX VALIER SAT          
1 42778U 17036P   17323.19488577  .00001638  00000-0  77236-4 0  9997
2 42778  97.4336  21.0946 0014449  86.3874 273.9013 15.20826084 22580
